NORAD_CAT_ID,OBJECT_NAME,OBJECT_TYPE,EPOCH,MEAN_MOTION,ECCENTRICITY,INCLINATION,RA_OF_ASC_NODE,ARG_OF_PERICENTER,MEAN_ANOMALY,BSTAR,MEAN_MOTION_DOT,MEAN_MOTION_DDOT,TLE_LINE0,TLE_LINE1,TLE_LINE2,SEMIMAJOR_AXIS,PERIOD,APOGEE,PERIGEE,DECAYED
49763.0,STARLINK-3198,PAYLOAD,2024-02-11 20:08:15,15.0886094,0.0001491,53.2185,296.7558,110.3559,249.7594,-0.0001113,-2.06e-05,0.0,0 STARLINK-3198,1 49763U 21115AR  24042.83906506 -.00002060  00000-0 -11130-3 0  9997,2 49763  53.2185 296.7558 0001491 110.3559 249.7594 15.08860940122530,6917.816,95.436,540.713,538.65,0.0
49763.0,STARLINK-3198,PAYLOAD,2024-02-11 21:43:38,15.08860143,0.0001634,53.2188,296.46,99.0814,261.0363,-9.5277e-05,-1.805e-05,0.0,0 STARLINK-3198,1 49763U 21115AR  24042.90530465 -.00001805  00000-0 -95277-4 0  9993,2 49763  53.2188 296.4600 0001634  99.0814 261.0363 15.08860143121438,6917.819,95.436,540.814,538.553,0.0
49763.0,STARLINK-3198,PAYLOAD,2024-02-12 02:29:46,15.08868442,0.0001445,53.2177,295.5637,111.9536,248.161,-5.6747e-05,-1.192e-05,0.0,0 STARLINK-3198,1 49763U 21115AR  24043.10401422 -.00001192  00000-0 -56747-4 0  9994,2 49763  53.2177 295.5637 0001445 111.9536 248.1610 15.08868442122578,6917.793,95.436,540.658,538.659,0.0
49763.0,STARLINK-3198,PAYLOAD,2024-02-12 19:59:02,15.08841345,0.0001983,53.2158,292.2893,129.0164,231.1005,-1.1365e-05,-4.69e-06,0.0,0 STARLINK-3198,1 49763U 21115AR  24043.83266830 -.00000469  00000-0 -11365-4 0  9999,2 49763  53.2158 292.2893 0001983 129.0164 231.1005 15.08841345122684,6917.876,95.437,541.113,538.369,0.0
49763.0,STARLINK-3198,PAYLOAD,2024-02-12 21:34:25,15.08840024,0.0001397,53.2177,291.9958,108.1701,251.9444,-3.9117e-06,-3.5e-06,0.0,0 STARLINK-3198,1 49763U 21115AR  24043.89891067 -.00000350  00000-0 -39117-5 0  9996,2 49763  53.2177 291.9958 0001397 108.1701 251.9444 15.08840024121585,6917.88,95.438,540.712,538.779,0.0
49763.0,STARLINK-3198,PAYLOAD,2024-02-13 02:20:35,15.08839837,0.0001476,53.2177,291.1032,108.8286,251.2866,-4.8988e-06,-3.66e-06,0.0,0 STARLINK-3198,1 49763U 21115AR  24044.09763017 -.00000366  00000-0 -48988-5 0  9995,2 49763  53.2177 291.1032 0001476 108.8286 251.2866 15.08839837121618,6917.881,95.438,540.767,538.725,0.0
49763.0,STARLINK-3198,PAYLOAD,2024-02-13 19:49:50,15.08840029,0.000142,53.2169,287.8317,103.308,256.8071,-8.7656e-05,-1.683e-05,0.0,0 STARLINK-3198,1 49763U 21115AR  24044.82627613 -.00001683  00000-0 -87656-4 0  9994,2 49763  53.2169 287.8317 0001420 103.3080 256.8071 15.08840029122837,6917.88,95.438,540.728,538.763,0.0
49763.0,STARLINK-3198,PAYLOAD,2024-02-13 23:00:36,15.08844289,0.0001195,53.2164,287.2382,83.4718,276.641,-4.5631e-05,-1.014e-05,0.0,0 STARLINK-3198,1 49763U 21115AR  24044.95875210 -.00001014  00000-0 -45631-4 0  9991,2 49763  53.2164 287.2382 0001195  83.4718 276.6410 15.08844289121741,6917.867,95.437,540.559,538.906,0.0
49763.0,STARLINK-3198,PAYLOAD,2024-02-14 08:32:54,15.08845829,0.0001517,53.2182,285.4584,110.3714,249.7441,-2.365e-05,-6.64e-06,0.0,0 STARLINK-3198,1 49763U 21115AR  24045.35619026 -.00000664  00000-0 -23650-4 0  9994,2 49763  53.2182 285.4584 0001517 110.3714 249.7441 15.08845829122915,6917.863,95.437,540.777,538.678,0.0
49763.0,STARLINK-3198,PAYLOAD,2024-02-14 16:29:50,15.08834779,0.0001651,53.2186,283.9715,107.4397,252.6776,0.00010355,1.36e-05,0.0,0 STARLINK-3198,1 49763U 21115AR  24045.68739566  .00001360  00000-0  10355-3 0  9991,2 49763  53.2186 283.9715 0001651 107.4397 252.6776 15.08834779122962,6917.896,95.438,540.903,538.619,0.0
49763.0,STARLINK-3198,PAYLOAD,2024-02-14 22:51:23,15.08833922,0.0001632,53.2186,282.7822,105.3902,254.7271,9.3366e-05,1.198e-05,0.0,0 STARLINK-3198,1 49763U 21115AR  24045.95235836  .00001198  00000-0  93366-4 0  9995,2 49763  53.2186 282.7822 0001632 105.3902 254.7271 15.08833922121899,6917.899,95.438,540.893,538.635,0.0
49763.0,STARLINK-3198,PAYLOAD,2024-02-15 08:23:42,15.0883506,0.0001542,53.2182,280.998,104.123,255.9933,3.3126e-05,2.39e-06,0.0,0 STARLINK-3198,1 49763U 21115AR  24046.34980053  .00000239  00000-0  33126-4 0  9990,2 49763  53.2182 280.9980 0001542 104.1230 255.9933 15.08835060121951,6917.895,95.438,540.827,538.694,0.0
49763.0,STARLINK-3198,PAYLOAD,2024-02-15 19:31:24,15.08840593,0.0001455,53.2179,278.9165,96.9596,263.1562,8.469e-05,1.06e-05,0.0,0 STARLINK-3198,1 49763U 21115AR  24046.81347825  .00001060  00000-0  84690-4 0  9991,2 49763  53.2179 278.9165 0001455  96.9596 263.1562 15.08840593123133,6917.879,95.438,540.75,538.737,0.0
49763.0,STARLINK-3198,PAYLOAD,2024-02-15 22:42:10,15.08842759,0.0001459,53.2178,278.3218,96.5259,263.59,0.00010026,1.308e-05,0.0,0 STARLINK-3198,1 49763U 21115AR  24046.94595633  .00001308  00000-0  10026-3 0  9993,2 49763  53.2178 278.3218 0001459  96.5259 263.5900 15.08842759122046,6917.872,95.437,540.746,538.728,0.0
49763.0,STARLINK-3198,PAYLOAD,2024-02-16 08:14:29,15.08843729,0.0001511,53.2179,276.5357,85.7484,274.3681,8.4892e-05,1.063e-05,0.0,0 STARLINK-3198,1 49763U 21115AR  24047.34339605  .00001063  00000-0  84892-4 0  9994,2 49763  53.2179 276.5357 0001511  85.7484 274.3681 15.08843729122101,6917.869,95.437,540.779,538.689,0.0
49763.0,STARLINK-3198,PAYLOAD,2024-02-16 19:22:12,15.08830942,0.0001536,53.2178,274.456,86.1994,273.9174,9.0378e-06,-1.44e-06,0.0,0 STARLINK-3198,1 49763U 21115AR  24047.80708716 -.00000144  00000-0  90378-5 0  9995,2 49763  53.2178 274.4560 0001536  86.1994 273.9174 15.08830942123286,6917.908,95.438,540.836,538.71,0.0
49763.0,STARLINK-3198,PAYLOAD,2024-02-16 22:32:58,15.08835008,0.0001556,53.2172,273.8601,84.191,275.926,4.6087e-05,4.45e-06,0.0,0 STARLINK-3198,1 49763U 21115AR  24047.93956386  .00000445  00000-0  46087-4 0  9997,2 49763  53.2172 273.8601 0001556  84.1910 275.9260 15.08835008122192,6917.896,95.438,540.837,538.684,0.0
49763.0,STARLINK-3198,PAYLOAD,2024-02-17 00:08:20,15.08843587,0.0001392,53.2171,273.5635,92.5129,267.6022,0.00012662,1.728e-05,0.0,0 STARLINK-3198,1 49763U 21115AR  24048.00579574  .00001728  00000-0  12662-3 0  9992,2 49763  53.2171 273.5635 0001392  92.5129 267.6022 15.08843587123318,6917.869,95.437,540.697,538.771,0.0
49763.0,STARLINK-3198,PAYLOAD,2024-02-17 22:23:44,15.08848706,0.000139,53.2168,269.3979,93.1518,266.9633,6.9036e-05,8.11e-06,0.0,0 STARLINK-3198,1 49763U 21115AR  24048.93315345  .00000811  00000-0  69036-4 0  9998,2 49763  53.2168 269.3979 0001390  93.1518 266.9633 15.08848706122345,6917.854,95.437,540.68,538.757,0.0
49763.0,STARLINK-3198,PAYLOAD,2024-02-18 07:56:03,15.08842983,0.000129,53.2162,267.6101,87.6381,272.4759,2.8316e-05,1.63e-06,0.0,0 STARLINK-3198,1 49763U 21115AR  24049.33059646  .00000163  00000-0  28316-4 0  9998,2 49763  53.2162 267.6101 0001290  87.6381 272.4759 15.08842983123514,6917.871,95.437,540.629,538.844,0.0
49763.0,STARLINK-3198,PAYLOAD,2024-02-18 20:39:08,15.08837393,0.0001433,53.2179,265.2332,86.8903,273.2253,9.2049e-05,1.177e-05,0.0,0 STARLINK-3198,1 49763U 21115AR  24049.86051865  .00001177  00000-0  92049-4 0  9991,2 49763  53.2179 265.2332 0001433  86.8903 273.2253 15.08837393122484,6917.888,95.438,540.745,538.762,0.0
49763.0,STARLINK-3198,PAYLOAD,2024-02-19 07:46:50,15.08841362,0.0001562,53.2174,263.1527,82.3737,277.7433,-2.1782e-05,-6.35e-06,0.0,0 STARLINK-3198,1 49763U 21115AR  24050.32419912 -.00000635  00000-0 -21782-4 0  9991,2 49763  53.2174 263.1527 0001562  82.3737 277.7433 15.08841362122559,6917.876,95.437,540.822,538.661,0.0
49763.0,STARLINK-3198,PAYLOAD,2024-02-19 20:29:55,15.08841456,0.0001479,53.2174,260.7718,97.1969,262.9191,-4.2354e-05,-9.62e-06,0.0,0 STARLINK-3198,1 49763U 21115AR  24050.85411985 -.00000962  00000-0 -42354-4 0  9992,2 49763  53.2174 260.7718 0001479  97.1969 262.9191 15.08841456123745,6917.876,95.437,540.764,538.718,0.0
49763.0,STARLINK-3198,PAYLOAD,2024-02-19 23:40:42,15.08841517,0.0001493,53.2179,260.1767,98.6052,261.511,-4.8237e-05,-1.056e-05,0.0,0 STARLINK-3198,1 49763U 21115AR  24050.98659944 -.00001056  00000-0 -48237-4 0  9996,2 49763  53.2179 260.1767 0001493  98.6052 261.5110 15.08841517122656,6917.876,95.437,540.774,538.708,0.0
49763.0,STARLINK-3198,PAYLOAD,2024-02-20 20:20:42,15.08841866,0.0001501,53.2174,256.312,92.8481,267.2682,7.213e-05,8.6e-06,0.0,0 STARLINK-3198,1 49763U 21115AR  24051.84771671  .00000860  00000-0  72130-4 0  9993,2 49763  53.2174 256.3120 0001501  92.8481 267.2682 15.08841866122781,6917.875,95.437,540.778,538.701,0.0
49763.0,STARLINK-3198,PAYLOAD,2024-02-21 13:49:57,15.08836608,0.0001463,53.2173,253.0416,92.3383,267.7777,8.1939e-05,1.016e-05,0.0,0 STARLINK-3198,1 49763U 21115AR  24052.57635963  .00001016  00000-0  81939-4 0  9998,2 49763  53.2173 253.0416 0001463  92.3383 267.7777 15.08836608122895,6917.891,95.438,540.768,538.744,0.0
49763.0,STARLINK-3198,PAYLOAD,2024-02-21 20:11:29,15.08839715,0.0001373,53.2169,251.8515,90.5088,269.6061,6.6916e-05,7.77e-06,0.0,0 STARLINK-3198,1 49763U 21115AR  24052.84131859  .00000777  00000-0  66916-4 0  9994,2 49763  53.2169 251.8515 0001373  90.5088 269.6061 15.08839715124046,6917.881,95.438,540.696,538.796,0.0
49763.0,STARLINK-3198,PAYLOAD,2024-02-22 12:05:21,15.0883701,0.0001427,53.2172,248.8805,93.1146,267.0009,5.2609e-05,5.49e-06,0.0,0 STARLINK-3198,1 49763U 21115AR  24053.50372131  .00000549  00000-0  52609-4 0  9999,2 49763  53.2172 248.8805 0001427  93.1146 267.0009 15.08837010123030,6917.89,95.438,540.742,538.767,0.0
49763.0,STARLINK-3198,PAYLOAD,2024-02-22 16:51:31,15.08837433,0.0001401,53.2174,247.9883,92.8483,267.267,-5.2788e-06,-3.72e-06,0.0,0 STARLINK-3198,1 49763U 21115AR  24053.70244326 -.00000372  00000-0 -52788-5 0  9990,2 49763  53.2174 247.9883 0001401  92.8483 267.2670 15.08837433123068,6917.888,95.438,540.722,538.784,0.0
49763.0,STARLINK-3198,PAYLOAD,2024-02-23 11:56:08,15.08839512,0.0001349,53.2176,244.4197,93.3912,266.7234,2.8381e-05,1.64e-06,0.0,0 STARLINK-3198,1 49763U 21115AR  24054.49732174  .00000164  00000-0  28381-4 0  9998,2 49763  53.2176 244.4197 0001349  93.3912 266.7234 15.08839512123187,6917.882,95.438,540.68,538.814,0.0
